IRIDIUM 36 [-]          
1 24967U 97056C   23304.83453054  .00000888  00000+0  29628-3 0  9992
2 24967  86.3973  62.5252 0002218  96.1592 263.9858 14.36480375366864
IRIDIUM 39 [-]          
1 25042U 97069D   23304.88180815  .00001232  00000+0  32933-3 0  9995
2 25042  86.3874 105.6735 0020088 125.5281 234.7799 14.47452823362945
IRIDIUM 38 [-]          
1 25043U 97069E   23305.05397833  .00000718  00000+0  23595-3 0  9998
2 25043  86.3925 122.9435 0000187 192.3089 167.8104 14.36937655360862
IRIDIUM 42 [-]          
1 25077U 97077A   23305.04515791  .00000619  00000+0  20973-3 0  9995
2 25077  86.3935 128.3932 0001423  92.4190 267.7169 14.35248677355941
IRIDIUM 44 [-]          
1 25078U 97077B   23304.91796564  .00000798  00000+0  25212-3 0  9999
2 25078  86.3914 111.9645 0002779 132.6940 227.4493 14.39042764358201
IRIDIUM 45 [-]          
1 25104U 97082A   23304.80310845  .00012493  00000+0  79989-3 0  9992
2 25104  86.3743 329.3587 0177397 350.5316   9.2581 14.96274792362488
IRIDIUM 24 [-]          
1 25105U 97082B   23304.59316583  .00000767  00000+0  23336-3 0  9990
2 25105  86.3906 332.0965 0009681 233.9514 126.0789 14.40801762357568
IRIDIUM 51 [-]          
1 25262U 98018A   23304.82928708  .00013947  00000+0  77205-3 0  9996
2 25262  86.3922 339.8292 0161385 304.0187  54.5805 15.03178872356870
